OBJECT_NAME,OBJECT_ID,EPOCH,MEAN_MOTION,ECCENTRICITY,INCLINATION,RA_OF_ASC_NODE,ARG_OF_PERICENTER,MEAN_ANOMALY,EPHEMERIS_TYPE,CLASSIFICATION_TYPE,NORAD_CAT_ID,ELEMENT_SET_NO,REV_AT_EPOCH,BSTAR,MEAN_MOTION_DOT,MEAN_MOTION_DDOT
STARLINK-36288,2026-111S,2026-06-16T04:00:01.998720,15.58929954,.0000855,53.1602,157.1399,88.7287,285.9477,0,U,69164,999,538,-.36164E-1,-.2487445E-1,0
STARLINK-37445,2026-111T,2026-06-16T04:00:01.998720,15.56327981,.0001024,53.1601,157.2153,107.3457,230.2799,0,U,69165,999,538,-.39619E-1,-.2471495E-1,0
STARLINK-37491,2026-111U,2026-06-16T04:00:01.998720,15.64840461,.0001093,53.1594,156.9990,69.6097,14.1898,0,U,69166,999,538,-.29781E-1,-.2570954E-1,0
STARLINK-37474,2026-111V,2026-06-14T11:49:42.803328,15.78142856,.00009138,53.1570,165.2100,76.2100,283.9024,0,U,69167,999,383,.13870743E-2,.248272E-2,0
STARLINK-37469,2026-111W,2026-06-16T03:29:55.385088,15.49344935,.0001054,53.1591,158.4891,110.2846,249.8276,0,U,69168,999,407,.96039E-3,.53398E-3,0
STARLINK-37515,2026-111X,2026-06-16T04:00:01.998720,15.61105676,.0000906,53.1599,157.0249,90.5664,340.0603,0,U,69169,999,538,-.34023E-1,-.2537858E-1,0
STARLINK-37437,2026-111Y,2026-06-16T04:00:01.998720,15.64810239,.0001268,53.1598,156.9031,82.4900,48.1984,0,U,69170,999,538,-.29507E-1,-.2547999E-1,0
STARLINK-37392,2026-111Z,2026-06-16T04:00:01.998720,15.60080559,.0001296,53.1600,156.9692,85.6836,11.6636,0,U,69171,999,538,-.1157E-1,-.872477E-2,0
STARLINK-37472,2026-111AA,2026-06-16T04:00:01.998720,15.49285294,.000077,53.1600,157.3965,132.6926,113.4809,0,U,69172,999,538,.2391E-3,.12861E-3,0
STARLINK-37461,2026-111AB,2026-06-16T04:51:07.631424,15.49347192,.000124,53.1580,158.1268,125.9280,234.1844,0,U,69173,999,408,.72498E-3,.40134E-3,0
STARLINK-37333,2026-111AC,2026-06-16T04:00:01.998720,15.58891336,.0000976,53.1601,157.1610,97.1780,266.5151,0,U,69174,999,538,-.37142E-1,-.2542329E-1,0
STARLINK-37385,2026-111AD,2026-06-16T04:40:04.768896,15.49349442,.0001213,53.1597,158.0776,108.2348,251.8793,0,U,69175,999,408,.12715E-2,.71013E-3,0
STARLINK-37414,2026-111AE,2026-06-16T04:00:01.998720,15.60077299,.0001019,53.1598,156.9823,77.1821,13.7958,0,U,69176,999,538,-.35257E-1,-.2528412E-1,0
STRIX-7,2026-112A,2026-06-16T04:11:04.000704,15.01432269,.0023238,44.9055,197.7691,41.2929,318.9694,0,U,69177,999,372,.15913E-3,.1863E-4,0
SHENZHOU-23 (SZ-23),2026-113A,2026-06-15T19:48:23.213952,15.60759061,.00075428,41.4696,330.2900,66.1624,294.0005,0,U,69180,999,29311,.24529479E-3,.20744E-3,0
STARLINK-37380,2026-114A,2026-06-16T03:25:44.101056,15.78115157,.0001061,53.1573,207.7214,64.0316,296.0815,0,U,69182,999,460,.99378E-3,.175952E-2,0
STARLINK-37089,2026-114B,2026-06-15T19:48:23.766912,15.78112572,.00010759,53.1573,209.2965,83.9578,276.1566,0,U,69183,999,455,.97586647E-3,.172681E-2,0
STARLINK-37428,2026-114C,2026-06-16T03:22:21.215712,15.78162495,.000191,53.1574,207.7062,25.7105,334.4011,0,U,69184,999,460,.1089E-2,.193696E-2,0
STARLINK-37237,2026-114D,2026-06-16T03:18:24.134112,15.78099115,.0001194,53.1574,207.6872,48.6225,311.4899,0,U,69185,999,460,.84001E-3,.148025E-2,0
STARLINK-37365,2026-114E,2026-06-16T03:18:51.178176,15.78087243,.000095,53.1573,207.6894,55.8879,304.2232,0,U,69186,999,460,.67705E-3,.118704E-2,0
STARLINK-37209,2026-114F,2026-06-16T03:17:44.458368,15.78096118,.0001174,53.1574,207.6843,54.4015,305.7116,0,U,69187,999,460,.76083E-3,.133766E-2,0
STARLINK-37359,2026-114G,2026-06-16T03:17:06.228096,15.78099041,.0001102,53.1574,207.6812,41.3562,318.7542,0,U,69188,999,460,.8179E-3,.144043E-2,0
STARLINK-37440,2026-114H,2026-06-16T04:00:01.998720,15.75981290,.0000888,53.1593,206.9666,88.3314,355.3478,0,U,69189,999,465,-.1182E-1,-.1660464E-1,0
STARLINK-37282,2026-114J,2026-06-16T03:07:48.658656,15.78084987,.0000895,53.1572,207.6375,33.9095,326.1983,0,U,69190,999,460,.12353E-2,.219707E-2,0
STARLINK-37422,2026-114K,2026-06-15T10:03:30.055104,15.80999095,.00012671,53.1579,211.0244,164.9839,195.1222,0,U,69191,999,449,.13541344E-2,.276916E-2,0
STARLINK-37424,2026-114L,2026-06-16T03:07:58.259424,15.78098329,.0001121,53.1567,207.6386,65.8106,294.3033,0,U,69192,999,460,.83016E-3,.146247E-2,0
STARLINK-36666,2026-114M,2026-06-16T02:45:12.907008,15.80905034,.0001114,53.1571,207.5338,91.7821,268.3329,0,U,69193,999,460,.90384E-3,.181761E-2,0
STARLINK-37355,2026-114N,2026-06-16T02:44:07.827072,15.80912204,.0001031,53.1572,207.5288,76.5916,283.5221,0,U,69194,999,460,.8508E-3,.170893E-2,0
STARLINK-37166,2026-114P,2026-06-16T02:41:58.333344,15.80909578,.0001015,53.1573,207.5186,89.4213,270.6926,0,U,69195,999,460,.87883E-3,.176644E-2,0
