STARLINK-36288          
1 69164U 26111S   26167.16668980 -.02487445  00000+0 -36164-1 0  9999
2 69164  53.1602 157.1399 0000855  88.7287 285.9477 15.58929954  5383
STARLINK-37445          
1 69165U 26111T   26167.16668980 -.02471495  00000+0 -39619-1 0  9996
2 69165  53.1601 157.2153 0001024 107.3457 230.2799 15.56327981  5388
STARLINK-37491          
1 69166U 26111U   26167.16668980 -.02570954  00000+0 -29781-1 0  9996
2 69166  53.1594 156.9990 0001093  69.6097  14.1898 15.64840461  5382
STARLINK-37474          
1 69167U 26111V   26165.49285652  .00248272  00000+0  13871-2 0  9997
2 69167  53.1570 165.2100 0000913  76.2100 283.9024 15.78142856  3835
STARLINK-37469          
1 69168U 26111W   26167.14577992  .00053398  00000+0  96039-3 0  9994
2 69168  53.1591 158.4891 0001054 110.2846 249.8276 15.49344935  4070
STARLINK-37515          
1 69169U 26111X   26167.16668980 -.02537858  00000+0 -34023-1 0  9990
2 69169  53.1599 157.0249 0000906  90.5664 340.0603 15.61105676  5388
STARLINK-37437          
1 69170U 26111Y   26167.16668980 -.02547999  00000+0 -29507-1 0  9990
2 69170  53.1598 156.9031 0001268  82.4900  48.1984 15.64810239  5380
STARLINK-37392          
1 69171U 26111Z   26167.16668980 -.00872477  00000+0 -11570-1 0  9992
2 69171  53.1600 156.9692 0001296  85.6836  11.6636 15.60080559  5381
STARLINK-37472          
1 69172U 26111AA  26167.16668980  .00012861  00000+0  23910-3 0  9997
2 69172  53.1600 157.3965 0000770 132.6926 113.4809 15.49285294  5382
STARLINK-37461          
1 69173U 26111AB  26167.20217166  .00040134  00000+0  72498-3 0  9998
2 69173  53.1580 158.1268 0001240 125.9280 234.1844 15.49347192  4088
STARLINK-37333          
1 69174U 26111AC  26167.16668980 -.02542329  00000+0 -37142-1 0  9990
2 69174  53.1601 157.1610 0000976  97.1780 266.5151 15.58891336  5381
STARLINK-37385          
1 69175U 26111AD  26167.19449964  .00071013  00000+0  12715-2 0  9996
2 69175  53.1597 158.0776 0001213 108.2348 251.8793 15.49349442  4089
STARLINK-37414          
1 69176U 26111AE  26167.16668980 -.02528412  00000+0 -35257-1 0  9994
2 69176  53.1598 156.9823 0001019  77.1821  13.7958 15.60077299  5388
STRIX-7                 
1 69177U 26112A   26167.17435186  .00001863  00000+0  15913-3 0  9998
2 69177  44.9055 197.7691 0023238  41.2929 318.9694 15.01432269  3729
SHENZHOU-23 (SZ-23)     
1 69180U 26113A   26166.82526868  .00020744  00000+0  24529-3 0  9994
2 69180  41.4696 330.2900 0007542  66.1624 294.0005 15.60759061293112
STARLINK-37380          
1 69182U 26114A   26167.14287154  .00175952  00000+0  99378-3 0  9991
2 69182  53.1573 207.7214 0001061  64.0316 296.0815 15.78115157  4605
STARLINK-37089          
1 69183U 26114B   26166.82527508  .00172681  00000+0  97587-3 0  9992
2 69183  53.1573 209.2965 0001075  83.9578 276.1566 15.78112572  4555
STARLINK-37428          
1 69184U 26114C   26167.14052333  .00193696  00000+0  10890-2 0  9998
2 69184  53.1574 207.7062 0001910  25.7105 334.4011 15.78162495  4604
STARLINK-37237          
1 69185U 26114D   26167.13777933  .00148025  00000+0  84001-3 0  9990
2 69185  53.1574 207.6872 0001194  48.6225 311.4899 15.78099115  4601
STARLINK-37365          
1 69186U 26114E   26167.13809234  .00118704  00000+0  67705-3 0  9994
2 69186  53.1573 207.6894 0000950  55.8879 304.2232 15.78087243  4609
STARLINK-37209          
1 69187U 26114F   26167.13732012  .00133766  00000+0  76083-3 0  9998
2 69187  53.1574 207.6843 0001174  54.4015 305.7116 15.78096118  4609
STARLINK-37359          
1 69188U 26114G   26167.13687764  .00144043  00000+0  81790-3 0  9993
2 69188  53.1574 207.6812 0001102  41.3562 318.7542 15.78099041  4604
STARLINK-37440          
1 69189U 26114H   26167.16668980 -.01660464  00000+0 -11820-1 0  9994
2 69189  53.1593 206.9666 0000888  88.3314 355.3478 15.75981290  4654
STARLINK-37282          
1 69190U 26114J   26167.13042429  .00219707  00000+0  12353-2 0  9997
2 69190  53.1572 207.6375 0000895  33.9095 326.1983 15.78084987  4600
STARLINK-37422          
1 69191U 26114K   26166.41909786  .00276916  00000+0  13541-2 0  9991
2 69191  53.1579 211.0244 0001267 164.9839 195.1222 15.80999095  4492
STARLINK-37424          
1 69192U 26114L   26167.13053541  .00146247  00000+0  83016-3 0  9999
2 69192  53.1567 207.6386 0001121  65.8106 294.3033 15.78098329  4605
STARLINK-36666          
1 69193U 26114M   26167.11473272  .00181761  00000+0  90384-3 0  9991
2 69193  53.1571 207.5338 0001114  91.7821 268.3329 15.80905034  4603
STARLINK-37355          
1 69194U 26114N   26167.11397948  .00170893  00000+0  85080-3 0  9998
2 69194  53.1572 207.5288 0001031  76.5916 283.5221 15.80912204  4600
STARLINK-37166          
1 69195U 26114P   26167.11248071  .00176644  00000+0  87883-3 0  9994
2 69195  53.1573 207.5186 0001015  89.4213 270.6926 15.80909578  4603
